ALOS (DAICHI)           
1 28931U 06002A   26005.59500709  .00002125  00000+0  36611-3 0  9998
2 28931  98.1128 321.9191 0002014 101.4176 258.7256 14.69578072 64214
H-2A R/B                
1 28932U 06002B   26008.66928369  .00011194  00000+0  57780-3 0  9992
2 28932  98.2332 150.6319 0054630  85.6547 275.0923 15.15198966 85340
RESURS-DK 1             
1 29228U 06021A   26008.48709598  .00003097  00000+0  18434-3 0  9999
2 29228  69.9340  32.7034 0006530 236.9088 123.1452 15.12346955 78425
CZ-4B R/B               
1 29507U 06046C   26008.63283216  .00005310  00000+0  27418-3 0  9999
2 29507  97.5697  53.6982 0035216 114.6015 245.8893 15.16198408 50946
CZ-2C R/B               
1 31114U 07010B   26008.84282697  .00000183  00000+0  10290-3 0  9996
2 31114  98.3971 125.1300 0060070 108.0081 252.7655 14.20223050971224
COSMO-SKYMED 1          
1 31598U 07023A   26009.01307130  .00003897  00000+0  35254-3 0  9998
2 31598  97.8850 199.5956 0001615  82.4266 277.7138 14.96016891  5982
COSMOS 2428             
1 31792U 07029A   26008.64142696  .00000348  00000+0  21264-3 0  9996
2 31792  70.9388 329.3969 0005250 346.8734  13.2249 14.12905244955616
SL-16 R/B               
1 31793U 07029B   26008.56051608 -.00000067  00000+0 -97550-5 0  9993
2 31793  70.9773 298.7787 0002186 273.3477 259.3718 14.14825837956868
KORONAS-FOTON           
1 33504U 09003A   26008.62924244  .00011810  00000+0  27741-3 0  9990
2 33504  82.4323 338.2303 0012011  24.5994 335.5823 15.41794284936483
CZ-2C R/B               
1 37731U 11030B   26008.64098034  .00001551  00000+0  20242-3 0  9990
2 37731  97.8449 327.1590 0052537 184.2069 348.8446 14.80997688781208
H-2A R/B                
1 38341U 12025E   26008.62104985  .00003477  00000+0  32061-3 0  9995
2 38341  98.4634 330.9324 0045652 147.7528 212.6496 14.94644673739248
SHIJIAN-16 (SJ-16)      
1 39358U 13057A   26008.62454028  .00004145  00000+0  40905-3 0  9995
2 39358  74.9740 298.7812 0017905 257.8395 102.0787 14.92119435662546
